sat02481
1 02481U 66089A   20046.67321888 -.00000001  00000-0 -16193-2 0  9994
2 02481  89.7025  50.0210 0032120 112.3676 248.0584  8.59252727674195
